[{"OBJECT_NAME":"STARLINK-32201","OBJECT_ID":"2024-183D","EPOCH":"2026-03-09T10:19:29.276544","MEAN_MOTION":15.30191196,"ECCENTRICITY":9.534e-5,"INCLINATION":53.16,"RA_OF_ASC_NODE":130.8022,"ARG_OF_PERICENTER":92.4645,"MEAN_ANOMALY":267.6464,"EPHEMERIS_TYPE":0,"CLASSIFICATION_TYPE":"U","NORAD_CAT_ID":61512,"ELEMENT_SET_NO":999,"REV_AT_EPOCH":7979,"BSTAR":1.508192e-5,"MEAN_MOTION_DOT":8.8e-7,"MEAN_MOTION_DDOT":0},{"OBJECT_NAME":"TEVEL2-8","OBJECT_ID":"2025-052AF","EPOCH":"2026-03-09T16:02:08.542752","MEAN_MOTION":15.28392908,"ECCENTRICITY":0.0008031,"INCLINATION":97.4055,"RA_OF_ASC_NODE":324.2923,"ARG_OF_PERICENTER":124.9191,"MEAN_ANOMALY":235.2804,"EPHEMERIS_TYPE":0,"CLASSIFICATION_TYPE":"U","NORAD_CAT_ID":63239,"ELEMENT_SET_NO":999,"REV_AT_EPOCH":5480,"BSTAR":0.00069303947,"MEAN_MOTION_DOT":0.0001913,"MEAN_MOTION_DDOT":0}]
